{"type": "FeatureCollection", "features": [ {"type": "Feature", "properties": {"norad_id": 66603, "name": "STARLINK-36048", "group": "last-30-days", "lat": -34.264956785468534, "lon": 100.08859288424804, "alt_km": 445.94244740411705, "timestamp": "2025-12-20T14:38:00.687430+00:00", "meta": {"OBJECT_NAME": "STARLINK-36048", "OBJECT_ID": "2025-270R", "EPOCH": "2025-12-20T00:00:02.000160", "MEAN_MOTION": 15.40687375, "ECCENTRICITY": 0.0001591, "INCLINATION": 42.9996, "RA_OF_ASC_NODE": 150.5807, "ARG_OF_PERICENTER": 274.8987, "MEAN_ANOMALY": 243.6785, "EPHEMERIS_TYPE": 0, "CLASSIFICATION_TYPE": "U", "NORAD_CAT_ID": 66603, "ELEMENT_SET_NO": 999, "REV_AT_EPOCH": 546, "BSTAR": 0.00083486, "MEAN_MOTION_DOT": 0.00034715, "MEAN_MOTION_DDOT": 0}, "tle": {"line1": "1 66603U 25270R   25354.00002315  .00034715  00000+0  83486-3 0  9998", "line2": "2 66603  42.9996 150.5807 0001591 274.8987 243.6785 15.40687375  5465"}}, "geometry": {"type": "Point", "coordinates": [100.08859288424804, -34.264956785468534]}}, {"type": "Feature", "properties": {"norad_id": 66604, "name": "STARLINK-35977", "group": "last-30-days", "lat": -20.449998169694783, "lon": 123.41688388800712, "alt_km": 445.3733943754187, "timestamp": "2025-12-20T14:38:00.687441+00:00", "meta": {"OBJECT_NAME": "STARLINK-35977", "OBJECT_ID": "2025-270S", "EPOCH": "2025-12-20T06:00:02.999808", "MEAN_MOTION": 15.40684107, "ECCENTRICITY": 0.00020584, "INCLINATION": 43, "RA_OF_ASC_NODE": 149.0783, "ARG_OF_PERICENTER": 264.642, "MEAN_ANOMALY": 227.1628, "EPHEMERIS_TYPE": 0, "CLASSIFICATION_TYPE": "U", "NORAD_CAT_ID": 66604, "ELEMENT_SET_NO": 999, "REV_AT_EPOCH": 560, "BSTAR": 0.00062472941, "MEAN_MOTION_DOT": 0.00025868, "MEAN_MOTION_DDOT": 0}, "tle": {"line1": "1 66604U 25270S   25354.25003472  .00025868  00000+0  62473-3 0  9993", "line2": "2 66604  43.0000 149.0783 0002058 264.6420 227.1628 15.40684107  5607"}}, "geometry": {"type": "Point", "coordinates": [123.41688388800712, -20.449998169694783]}}, {"type": "Feature", "properties": {"norad_id": 66605, "name": "STARLINK-36052", "group": "last-30-days", "lat": 28.163647936489, "lon": -178.10916572684232, "alt_km": 440.3565168799205, "timestamp": "2025-12-20T14:38:00.687451+00:00", "meta": {"OBJECT_NAME": "STARLINK-36052", "OBJECT_ID": "2025-270T", "EPOCH": "2025-12-20T06:00:02.999808", "MEAN_MOTION": 15.40693479, "ECCENTRICITY": 0.00021578, "INCLINATION": 42.9999, "RA_OF_ASC_NODE": 148.8972, "ARG_OF_PERICENTER": 277.3609, "MEAN_ANOMALY": 289.0599, "EPHEMERIS_TYPE": 0, "CLASSIFICATION_TYPE": "U", "NORAD_CAT_ID": 66605, "ELEMENT_SET_NO": 999, "REV_AT_EPOCH": 560, "BSTAR": 0.00062939041, "MEAN_MOTION_DOT": 0.00026072, "MEAN_MOTION_DDOT": 0}, "tle": {"line1": "1 66605U 25270T   25354.25003472  .00026072  00000+0  62939-3 0  9999", "line2": "2 66605  42.9999 148.8972 0002157 277.3609 289.0599 15.40693479  5606"}}, "geometry": {"type": "Point", "coordinates": [-178.10916572684232, 28.163647936489]}}, {"type": "Feature", "properties": {"norad_id": 66606, "name": "STARLINK-36063", "group": "last-30-days", "lat": 32.52575489007562, "lon": -76.56825268597083, "alt_km": 410.4613551162738, "timestamp": "2025-12-20T14:38:00.687462+00:00", "meta": {"OBJECT_NAME": "STARLINK-36063", "OBJECT_ID": "2025-270U", "EPOCH": "2025-12-19T11:48:20.511648", "MEAN_MOTION": 15.50662232, "ECCENTRICITY": 0.0001816, "INCLINATION": 42.9987, "RA_OF_ASC_NODE": 153.1595, "ARG_OF_PERICENTER": 282.0515, "MEAN_ANOMALY": 78.0141, "EPHEMERIS_TYPE": 0, "CLASSIFICATION_TYPE": "U", "NORAD_CAT_ID": 66606, "ELEMENT_SET_NO": 999, "REV_AT_EPOCH": 539, "BSTAR": 0.00079676, "MEAN_MOTION_DOT": 0.0004682, "MEAN_MOTION_DDOT": 0}, "tle": {"line1": "1 66606U 25270U   25353.49190407  .00046820  00000+0  79676-3 0  9999", "line2": "2 66606  42.9987 153.1595 0001816 282.0515  78.0141 15.50662232  5393"}}, "geometry": {"type": "Point", "coordinates": [-76.56825268597083, 32.52575489007562]}}, {"type": "Feature", "properties": {"norad_id": 66607, "name": "STARLINK-35993", "group": "last-30-days", "lat": 34.5037068343897, "lon": -165.67455519788024, "alt_km": 439.65354885533, "timestamp": "2025-12-20T14:38:00.687472+00:00", "meta": {"OBJECT_NAME": "STARLINK-35993", "OBJECT_ID": "2025-270V", "EPOCH": "2025-12-20T06:00:02.999808", "MEAN_MOTION": 15.40653616, "ECCENTRICITY": 0.00018319, "INCLINATION": 42.9999, "RA_OF_ASC_NODE": 148.8673, "ARG_OF_PERICENTER": 268.4538, "MEAN_ANOMALY": 310.3899, "EPHEMERIS_TYPE": 0, "CLASSIFICATION_TYPE": "U", "NORAD_CAT_ID": 66607, "ELEMENT_SET_NO": 999, "REV_AT_EPOCH": 550, "BSTAR": 0.0006307335, "MEAN_MOTION_DOT": 0.00026094, "MEAN_MOTION_DDOT": 0}, "tle": {"line1": "1 66607U 25270V   25354.25003472  .00026094  00000+0  63073-3 0  9995", "line2": "2 66607  42.9999 148.8673 0001831 268.4538 310.3899 15.40653616  5505"}}, "geometry": {"type": "Point", "coordinates": [-165.67455519788024, 34.5037068343897]}}, {"type": "Feature", "properties": {"norad_id": 66608, "name": "STARLINK-36036", "group": "last-30-days", "lat": 31.699707193272104, "lon": -74.90037065138067, "alt_km": 410.3297718582835, "timestamp": "2025-12-20T14:38:00.687484+00:00", "meta": {"OBJECT_NAME": "STARLINK-36036", "OBJECT_ID": "2025-270W", "EPOCH": "2025-12-19T11:47:53.026080", "MEAN_MOTION": 15.50612484, "ECCENTRICITY": 0.0001538, "INCLINATION": 42.999, "RA_OF_ASC_NODE": 153.1562, "ARG_OF_PERICENTER": 266.4602, "MEAN_ANOMALY": 93.6082, "EPHEMERIS_TYPE": 0, "CLASSIFICATION_TYPE": "U", "NORAD_CAT_ID": 66608, "ELEMENT_SET_NO": 999, "REV_AT_EPOCH": 523, "BSTAR": 0.0010303, "MEAN_MOTION_DOT": 0.00060643, "MEAN_MOTION_DDOT": 0}, "tle": {"line1": "1 66608U 25270W   25353.49158595  .00060643  00000+0  10303-2 0  9993", "line2": "2 66608  42.9990 153.1562 0001538 266.4602  93.6082 15.50612484  5231"}}, "geometry": {"type": "Point", "coordinates": [-74.90037065138067, 31.699707193272104]}}, {"type": "Feature", "properties": {"norad_id": 66609, "name": "STARLINK-36034", "group": "last-30-days", "lat": 30.574615423948956, "lon": -72.74185213741667, "alt_km": 410.5975474392744, "timestamp": "2025-12-20T14:38:00.687495+00:00", "meta": {"OBJECT_NAME": "STARLINK-36034", "OBJECT_ID": "2025-270X", "EPOCH": "2025-12-18T20:19:48.622656", "MEAN_MOTION": 15.50608281, "ECCENTRICITY": 0.00016988, "INCLINATION": 42.9989, "RA_OF_ASC_NODE": 156.9208, "ARG_OF_PERICENTER": 264.7399, "MEAN_ANOMALY": 95.3267, "EPHEMERIS_TYPE": 0, "CLASSIFICATION_TYPE": "U", "NORAD_CAT_ID": 66609, "ELEMENT_SET_NO": 999, "REV_AT_EPOCH": 513, "BSTAR": 0.00068333644, "MEAN_MOTION_DOT": 0.00039994, "MEAN_MOTION_DDOT": 0}, "tle": {"line1": "1 66609U 25270X   25352.84709054  .00039994  00000+0  68334-3 0  9997", "line2": "2 66609  42.9989 156.9208 0001698 264.7399  95.3267 15.50608281  5132"}}, "geometry": {"type": "Point", "coordinates": [-72.74185213741667, 30.574615423948956]}}, {"type": "Feature", "properties": {"norad_id": 66610, "name": "STARLINK-35680", "group": "last-30-days", "lat": 42.34735463654482, "lon": -135.27900598233884, "alt_km": 438.8006956599602, "timestamp": "2025-12-20T14:38:00.687505+00:00", "meta": {"OBJECT_NAME": "STARLINK-35680", "OBJECT_ID": "2025-270Y", "EPOCH": "2025-12-20T06:00:02.999808", "MEAN_MOTION": 15.40638056, "ECCENTRICITY": 0.00021763, "INCLINATION": 42.9997, "RA_OF_ASC_NODE": 148.8057, "ARG_OF_PERICENTER": 279.4382, "MEAN_ANOMALY": 324.3506, "EPHEMERIS_TYPE": 0, "CLASSIFICATION_TYPE": "U", "NORAD_CAT_ID": 66610, "ELEMENT_SET_NO": 999, "REV_AT_EPOCH": 571, "BSTAR": 0.00095185387, "MEAN_MOTION_DOT": 0.00039583, "MEAN_MOTION_DDOT": 0}, "tle": {"line1": "1 66610U 25270Y   25354.25003472  .00039583  00000+0  95185-3 0  9995", "line2": "2 66610  42.9997 148.8057 0002176 279.4382 324.3506 15.40638056  5719"}}, "geometry": {"type": "Point", "coordinates": [-135.27900598233884, 42.34735463654482]}}, {"type": "Feature", "properties": {"norad_id": 66611, "name": "STARLINK-35583", "group": "last-30-days", "lat": 41.05119790568139, "lon": -102.48380726140519, "alt_km": 435.4137478346538, "timestamp": "2025-12-20T14:38:00.687515+00:00", "meta": {"OBJECT_NAME": "STARLINK-35583", "OBJECT_ID": "2025-270Z", "EPOCH": "2025-12-20T06:00:02.999808", "MEAN_MOTION": 15.43893924, "ECCENTRICITY": 0.00024584, "INCLINATION": 42.9992, "RA_OF_ASC_NODE": 148.7552, "ARG_OF_PERICENTER": 267.5842, "MEAN_ANOMALY": 357.5899, "EPHEMERIS_TYPE": 0, "CLASSIFICATION_TYPE": "U", "NORAD_CAT_ID": 66611, "ELEMENT_SET_NO": 999, "REV_AT_EPOCH": 571, "BSTAR": -0.056672924, "MEAN_MOTION_DOT": -0.02350299, "MEAN_MOTION_DDOT": 0}, "tle": {"line1": "1 66611U 25270Z   25354.25003472 -.02350299  00000+0 -56673-1 0  9997", "line2": "2 66611  42.9992 148.7552 0002458 267.5842 357.5899 15.43893924  5719"}}, "geometry": {"type": "Point", "coordinates": [-102.48380726140519, 41.05119790568139]}}, {"type": "Feature", "properties": {"norad_id": 66612, "name": "STARLINK-36039", "group": "last-30-days", "lat": -24.726810078999517, "lon": -3.110605551535724, "alt_km": 445.4608717854535, "timestamp": "2025-12-20T14:38:00.687525+00:00", "meta": {"OBJECT_NAME": "STARLINK-36039", "OBJECT_ID": "2025-270AA", "EPOCH": "2025-12-19T11:14:40.026048", "MEAN_MOTION": 15.40749078, "ECCENTRICITY": 0.0001559, "INCLINATION": 42.9988, "RA_OF_ASC_NODE": 153.8506, "ARG_OF_PERICENTER": 277.1774, "MEAN_ANOMALY": 82.8905, "EPHEMERIS_TYPE": 0, "CLASSIFICATION_TYPE": "U", "NORAD_CAT_ID": 66612, "ELEMENT_SET_NO": 999, "REV_AT_EPOCH": 538, "BSTAR": 0.0012709, "MEAN_MOTION_DOT": 0.00053244, "MEAN_MOTION_DDOT": 0}, "tle": {"line1": "1 66612U 25270AA  25353.46851882  .00053244  00000+0  12709-2 0  9995", "line2": "2 66612  42.9988 153.8506 0001559 277.1774  82.8905 15.40749078  5389"}}, "geometry": {"type": "Point", "coordinates": [-3.110605551535724, -24.726810078999517]}}]}